CCSDS_OMM_VERS = 2.0
CREATION_DATE  = 
ORIGINATOR     = 

OBJECT_NAME    = HTV-X1
OBJECT_ID      = 2025-241A
CENTER_NAME    = EARTH
REF_FRAME      = TEME
TIME_SYSTEM    = UTC
MEAN_ELEMENT_THEORY = SGP/SGP4

EPOCH          = 2026-04-01T03:33:39.148128
MEAN_MOTION    = 15.32487490
ECCENTRICITY   = .0007212
INCLINATION    = 51.6375
RA_OF_ASC_NODE = 324.8235
ARG_OF_PERICENTER = 259.7881
MEAN_ANOMALY   = 100.2287

EPHEMERIS_TYPE = 0
CLASSIFICATION_TYPE = U
NORAD_CAT_ID   = 66174
ELEMENT_SET_NO = 999
REV_AT_EPOCH   = 2438
BSTAR          = .42398E-4
MEAN_MOTION_DOT = .978E-5
MEAN_MOTION_DDOT = 0

CCSDS_OMM_VERS = 2.0
CREATION_DATE  = 
ORIGINATOR     = 

OBJECT_NAME    = SZ-21 MODULE
OBJECT_ID      = 2025-246C
CENTER_NAME    = EARTH
REF_FRAME      = TEME
TIME_SYSTEM    = UTC
MEAN_ELEMENT_THEORY = SGP/SGP4

EPOCH          = 2026-04-01T05:13:49.755936
MEAN_MOTION    = 15.70344798
ECCENTRICITY   = .0002466
INCLINATION    = 41.4742
RA_OF_ASC_NODE = 64.4975
ARG_OF_PERICENTER = 219.0521
MEAN_ANOMALY   = 141.0144

EPHEMERIS_TYPE = 0
CLASSIFICATION_TYPE = U
NORAD_CAT_ID   = 66515
ELEMENT_SET_NO = 999
REV_AT_EPOCH   = 2161
BSTAR          = .33315E-3
MEAN_MOTION_DOT = .41753E-3
MEAN_MOTION_DDOT = 0

CCSDS_OMM_VERS = 2.0
CREATION_DATE  = 
ORIGINATOR     = 

OBJECT_NAME    = SHENZHOU-22
OBJECT_ID      = 2025-272A
CENTER_NAME    = EARTH
REF_FRAME      = TEME
TIME_SYSTEM    = UTC
MEAN_ELEMENT_THEORY = SGP/SGP4

EPOCH          = 2026-03-31T20:22:04.014912
MEAN_MOTION    = 15.61775142
ECCENTRICITY   = .0003682
INCLINATION    = 41.4668
RA_OF_ASC_NODE = 73.2165
ARG_OF_PERICENTER = 84.3022
MEAN_ANOMALY   = 275.8236

EPHEMERIS_TYPE = 0
CLASSIFICATION_TYPE = U
NORAD_CAT_ID   = 66645
ELEMENT_SET_NO = 999
REV_AT_EPOCH   = 28133
BSTAR          = .31477E-3
MEAN_MOTION_DOT = .27797E-3
MEAN_MOTION_DDOT = 0

CCSDS_OMM_VERS = 2.0
CREATION_DATE  = 
ORIGINATOR     = 

OBJECT_NAME    = SOYUZ-MS 28
OBJECT_ID      = 2025-275A
CENTER_NAME    = EARTH
REF_FRAME      = TEME
TIME_SYSTEM    = UTC
MEAN_ELEMENT_THEORY = SGP/SGP4

EPOCH          = 2026-04-01T02:25:28.666272
MEAN_MOTION    = 15.48690056
ECCENTRICITY   = .0006224
INCLINATION    = 51.6334
RA_OF_ASC_NODE = 321.5639
ARG_OF_PERICENTER = 257.9417
MEAN_ANOMALY   = 102.0874

EPHEMERIS_TYPE = 0
CLASSIFICATION_TYPE = U
NORAD_CAT_ID   = 66664
ELEMENT_SET_NO = 999
REV_AT_EPOCH   = 55989
BSTAR          = .17059E-3
MEAN_MOTION_DOT = .8862E-4
MEAN_MOTION_DDOT = 0

CCSDS_OMM_VERS = 2.0
CREATION_DATE  = 
ORIGINATOR     = 

OBJECT_NAME    = DUPLEX
OBJECT_ID      = 1998-067XS
CENTER_NAME    = EARTH
REF_FRAME      = TEME
TIME_SYSTEM    = UTC
MEAN_ELEMENT_THEORY = SGP/SGP4

EPOCH          = 2026-04-01T02:46:01.589952
MEAN_MOTION    = 15.57724655
ECCENTRICITY   = .0003067
INCLINATION    = 51.6289
RA_OF_ASC_NODE = 317.1598
ARG_OF_PERICENTER = 216.2059
MEAN_ANOMALY   = 143.8726

EPHEMERIS_TYPE = 0
CLASSIFICATION_TYPE = U
NORAD_CAT_ID   = 66906
ELEMENT_SET_NO = 999
REV_AT_EPOCH   = 1862
BSTAR          = .45047E-3
MEAN_MOTION_DOT = .33711E-3
MEAN_MOTION_DDOT = 0

CCSDS_OMM_VERS = 2.0
CREATION_DATE  = 
ORIGINATOR     = 

OBJECT_NAME    = ISS OBJECT XT
OBJECT_ID      = 1998-067XT
CENTER_NAME    = EARTH
REF_FRAME      = TEME
TIME_SYSTEM    = UTC
MEAN_ELEMENT_THEORY = SGP/SGP4

EPOCH          = 2026-04-01T00:07:54.595200
MEAN_MOTION    = 15.77982760
ECCENTRICITY   = .0006663
INCLINATION    = 51.6228
RA_OF_ASC_NODE = 311.1343
ARG_OF_PERICENTER = 226.0366
MEAN_ANOMALY   = 134.0085

EPHEMERIS_TYPE = 0
CLASSIFICATION_TYPE = U
NORAD_CAT_ID   = 66907
ELEMENT_SET_NO = 999
REV_AT_EPOCH   = 1869
BSTAR          = .14153E-2
MEAN_MOTION_DOT = .252342E-2
MEAN_MOTION_DDOT = 0

CCSDS_OMM_VERS = 2.0
CREATION_DATE  = 
ORIGINATOR     = 

OBJECT_NAME    = ISS OBJECT XU
OBJECT_ID      = 1998-067XU
CENTER_NAME    = EARTH
REF_FRAME      = TEME
TIME_SYSTEM    = UTC
MEAN_ELEMENT_THEORY = SGP/SGP4

EPOCH          = 2026-04-01T00:01:40.719936
MEAN_MOTION    = 15.78272322
ECCENTRICITY   = .000692
INCLINATION    = 51.6232
RA_OF_ASC_NODE = 311.1009
ARG_OF_PERICENTER = 225.5179
MEAN_ANOMALY   = 134.5256

EPHEMERIS_TYPE = 0
CLASSIFICATION_TYPE = U
NORAD_CAT_ID   = 66908
ELEMENT_SET_NO = 999
REV_AT_EPOCH   = 1869
BSTAR          = .14515E-2
MEAN_MOTION_DOT = .262522E-2
MEAN_MOTION_DDOT = 0

CCSDS_OMM_VERS = 2.0
CREATION_DATE  = 
ORIGINATOR     = 

OBJECT_NAME    = SILVERSAT
OBJECT_ID      = 1998-067XV
CENTER_NAME    = EARTH
REF_FRAME      = TEME
TIME_SYSTEM    = UTC
MEAN_ELEMENT_THEORY = SGP/SGP4

EPOCH          = 2026-04-01T00:09:49.991040
MEAN_MOTION    = 15.84315758
ECCENTRICITY   = .0008026
INCLINATION    = 51.6192
RA_OF_ASC_NODE = 309.6226
ARG_OF_PERICENTER = 232.8926
MEAN_ANOMALY   = 127.1344

EPHEMERIS_TYPE = 0
CLASSIFICATION_TYPE = U
NORAD_CAT_ID   = 66909
ELEMENT_SET_NO = 999
REV_AT_EPOCH   = 1871
BSTAR          = .15922E-2
MEAN_MOTION_DOT = .386729E-2
MEAN_MOTION_DDOT = 0

CCSDS_OMM_VERS = 2.0
CREATION_DATE  = 
ORIGINATOR     = 

OBJECT_NAME    = ISS OBJECT XW
OBJECT_ID      = 1998-067XW
CENTER_NAME    = EARTH
REF_FRAME      = TEME
TIME_SYSTEM    = UTC
MEAN_ELEMENT_THEORY = SGP/SGP4

EPOCH          = 2026-03-31T21:20:08.183904
MEAN_MOTION    = 15.76237796
ECCENTRICITY   = .0006882
INCLINATION    = 51.6213
RA_OF_ASC_NODE = 311.8494
ARG_OF_PERICENTER = 221.1915
MEAN_ANOMALY   = 138.8566

EPHEMERIS_TYPE = 0
CLASSIFICATION_TYPE = U
NORAD_CAT_ID   = 66910
ELEMENT_SET_NO = 999
REV_AT_EPOCH   = 1867
BSTAR          = .12591E-2
MEAN_MOTION_DOT = .206554E-2
MEAN_MOTION_DDOT = 0

CCSDS_OMM_VERS = 2.0
CREATION_DATE  = 
ORIGINATOR     = 

OBJECT_NAME    = ISS OBJECT XX
OBJECT_ID      = 1998-067XX
CENTER_NAME    = EARTH
REF_FRAME      = TEME
TIME_SYSTEM    = UTC
MEAN_ELEMENT_THEORY = SGP/SGP4

EPOCH          = 2026-03-31T20:54:36.817344
MEAN_MOTION    = 15.92173368
ECCENTRICITY   = .0009955
INCLINATION    = 51.6169
RA_OF_ASC_NODE = 308.6766
ARG_OF_PERICENTER = 236.6927
MEAN_ANOMALY   = 123.3127

EPHEMERIS_TYPE = 0
CLASSIFICATION_TYPE = U
NORAD_CAT_ID   = 66911
ELEMENT_SET_NO = 999
REV_AT_EPOCH   = 1870
BSTAR          = .17627E-2
MEAN_MOTION_DOT = .60442E-2
MEAN_MOTION_DDOT = .15627E-3

CCSDS_OMM_VERS = 2.0
CREATION_DATE  = 
ORIGINATOR     = 

OBJECT_NAME    = ISS OBJECT XY
OBJECT_ID      = 1998-067XY
CENTER_NAME    = EARTH
REF_FRAME      = TEME
TIME_SYSTEM    = UTC
MEAN_ELEMENT_THEORY = SGP/SGP4

EPOCH          = 2026-03-31T23:33:14.804640
MEAN_MOTION    = 15.68405535
ECCENTRICITY   = .0004673
INCLINATION    = 51.6257
RA_OF_ASC_NODE = 314.0012
ARG_OF_PERICENTER = 219.6211
MEAN_ANOMALY   = 140.4444

EPHEMERIS_TYPE = 0
CLASSIFICATION_TYPE = U
NORAD_CAT_ID   = 66912
ELEMENT_SET_NO = 999
REV_AT_EPOCH   = 1864
BSTAR          = .10957E-2
MEAN_MOTION_DOT = .127422E-2
MEAN_MOTION_DDOT = 0

CCSDS_OMM_VERS = 2.0
CREATION_DATE  = 
ORIGINATOR     = 

OBJECT_NAME    = KNACKSAT-2
OBJECT_ID      = 1998-067XZ
CENTER_NAME    = EARTH
REF_FRAME      = TEME
TIME_SYSTEM    = UTC
MEAN_ELEMENT_THEORY = SGP/SGP4

EPOCH          = 2026-03-31T23:54:00.274464
MEAN_MOTION    = 15.53721795
ECCENTRICITY   = .001024
INCLINATION    = 51.6314
RA_OF_ASC_NODE = 320.8633
ARG_OF_PERICENTER = 267.3943
MEAN_ANOMALY   = 92.5875

EPHEMERIS_TYPE = 0
CLASSIFICATION_TYPE = U
NORAD_CAT_ID   = 67683
ELEMENT_SET_NO = 999
REV_AT_EPOCH   = 825
BSTAR          = .70857E-3
MEAN_MOTION_DOT = .46098E-3
MEAN_MOTION_DDOT = 0

